COSMOS 2576             
1 59773U 24092A   26068.82603826  .00015211  00000+0  56283-3 0  9991
2 59773  97.4253 186.0053 0005946 159.7731 200.3745 15.27760963101271
STARLINK-33698          
1 63420U 25065X   26068.49618127  .00025678  00000+0  93852-3 0  9990
2 63420  43.0049 107.8205 0002325 310.0752  49.9895 15.27609420 52816
